H1 CPF 01  gfz 2022 01 28 01  5281 terrasarx 
H2 0702601  6201 31698    2022 01 28 00 59 42 2022 02 02 00 00 42   120 1 1  0 0 0
H9
10 0 59611  22302.000000  0    4046737.116   -903148.629  -5508553.229
10 0 59611  22422.000000  0    3268627.698   -960706.297  -5994328.199
10 0 59611  22542.000000  0    2433090.379   -987481.509  -6375397.709
10 0 59611  22662.000000  0    1555198.657   -982149.600  -6645188.157
10 0 59611  22782.000000  0     650748.637   -944209.209  -6799053.451
10 0 59611  22902.000000  0    -264021.729   -874000.157  -6834346.976
10 0 59611  23022.000000  0   -1172718.093   -772702.216  -6750461.480
10 0 59611  23142.000000  0   -2059076.652   -642315.747  -6548838.913
10 0 59611  23262.000000  0   -2907248.991   -485623.651  -6232947.288
10 0 59611  23382.000000  0   -3702078.693   -306136.030  -5808227.107
10 0 59611  23502.000000  0   -4429370.235   -108017.632  -5282008.866
10 0 59611  23622.000000  0   -5076144.404    104000.756  -4663397.078
10 0 59611  23742.000000  0   -5630875.050    324724.970  -3963124.967
10 0 59611  23862.000000  0   -6083704.761    548614.023  -3193378.675
10 0 59611  23982.000000  0   -6426632.162    769907.172  -2367592.331
10 0 59611  24102.000000  0   -6653666.114    982759.377  -1500216.964
10 0 59611  24222.000000  0   -6760943.918   1181381.418   -606467.766
10 0 59611  24342.000000  0   -6746807.923   1360181.327    297948.962
10 0 59611  24462.000000  0   -6611836.009   1513903.208   1197118.519
10 0 59611  24582.000000  0   -6358829.481   1637760.976   2075205.642
10 0 59611  24702.000000  0   -5992755.878   1727562.761   2916742.779
10 0 59611  24822.000000  0   -5520647.451   1779822.231   3706911.343
10 0 59611  24942.000000  0   -4951457.996   1791854.026   4431808.619
10 0 59611  25062.000000  0   -4295883.591   1761851.505   5078694.557
10 0 59611  25182.000000  0   -3566152.564   1688945.134   5636214.805
10 0 59611  25302.000000  0   -2775789.651   1573240.339   6094597.696
10 0 59611  25422.000000  0   -1939357.422   1415834.444   6445822.011
10 0 59611  25542.000000  0   -1072181.345   1218811.194   6683750.769
10 0 59611  25662.000000  0    -190066.158    985214.137   6804231.095
10 0 59611  25782.000000  0     690991.873    718999.439   6805161.522
10 0 59611  25902.000000  0    1555093.848    424968.676   6686526.176
10 0 59611  26022.000000  0    2386723.730    108682.869   6450395.139
10 0 59611  26142.000000  0    3171026.451   -223641.577   6100891.838
10 0 59611  26262.000000  0    3894075.335   -565253.438   5644125.809
10 0 59611  26382.000000  0    4543122.882   -909001.534   5088091.304
10 0 59611  26502.000000  0    5106831.214  -1247482.083   4442533.781
10 0 59611  26622.000000  0    5575478.180  -1573194.927   3718784.025
10 0 59611  26742.000000  0    5941134.341  -1878706.373   2929562.161
10 0 59611  26862.000000  0    6197806.446  -2156814.769   2088753.985
10 0 59611  26982.000000  0    6341543.092  -2400714.533   1211163.900
10 0 59611  27102.000000  0    6370500.888  -2604154.622    312248.686
10 0 59611  27222.000000  0    6284967.696  -2761587.654   -592162.937
10 0 59611  27342.000000  0    6087343.179  -2868305.197  -1486158.269
10 0 59611  27462.000000  0    5782075.071  -2920556.147  -2354029.736
10 0 59611  27582.000000  0    5375555.288  -2915644.611  -3180557.141
10 0 59611  27702.000000  0    4875979.071  -2852005.488  -3951278.265
10 0 59611  27822.000000  0    4293171.275  -2729257.070  -4652742.177
10 0 59611  27942.000000  0    3638383.284  -2548228.788  -5272741.355
10 0 59611  28062.000000  0    2924066.479  -2310963.480  -5800516.209
10 0 59611  28182.000000  0    2163630.792  -2020696.007  -6226931.023
10 0 59611  28302.000000  0    1371191.184  -1681808.732  -6544622.727
10 0 59611  28422.000000  0     561304.775  -1299763.140  -6748117.470
10 0 59611  28542.000000  0    -251293.488   -881011.409  -6833914.533
10 0 59611  28662.000000  0   -1051953.364   -432888.698  -6800539.362
10 0 59611  28782.000000  0   -1826367.224     36512.421  -6648566.239
10 0 59611  28902.000000  0   -2560819.970    518484.632  -6380608.555
10 0 59611  29022.000000  0   -3242426.258   1003862.642  -6001278.566
10 0 59611  29142.000000  0   -3859353.702   1483192.768  -5517117.363
10 0 59611  29262.000000  0   -4401030.067   1946912.647  -4936493.606
10 0 59611  29382.000000  0   -4858329.407   2385539.828  -4269470.487
10 0 59611  29502.000000  0   -5223732.807   2789864.207  -3527640.953
10 0 59611  29622.000000  0   -5491460.756   3151139.810  -2723935.143
10 0 59611  29742.000000  0   -5657575.129   3461273.679  -1872400.955
10 0 59611  29862.000000  0   -5720046.031   3713006.648   -987959.908
10 0 59611  29982.000000  0   -5678781.102   3900080.335    -86142.952
10 0 59611  30102.000000  0   -5535616.782   4017387.088    817188.028
10 0 59611  30222.000000  0   -5294269.515   4061097.452   1706128.782
10 0 59611  30342.000000  0   -4960247.502   4028761.404   2565021.813
10 0 59611  30462.000000  0   -4540727.512   3919382.206   3378739.882
10 0 59611  30582.000000  0   -4044399.121   3733460.509   4132959.919
10 0 59611  30702.000000  0   -3481280.182   3473006.405   4814419.117
10 0 59611  30822.000000  0   -2862509.228   3141521.644   5411149.532
10 0 59611  30942.000000  0   -2200118.747   2743951.174   5912686.671
10 0 59611  31062.000000  0   -1506795.932   2286606.024   6310249.109
10 0 59611  31182.000000  0    -795634.979   1777058.825   6596885.796
10 0 59611  31302.000000  0     -79889.011   1224015.475   6767589.925
10 0 59611  31422.000000  0     627276.538    637164.621   6819381.681
10 0 59611  31542.000000  0    1313025.432     27007.771   6751356.453
10 0 59611  31662.000000  0    1965082.381   -595327.744   6564700.011
10 0 59611  31782.000000  0    2571952.182  -1218291.233   6262669.752
10 0 59611  31902.000000  0    3123123.234  -1830122.024   5850542.223
10 0 59611  32022.000000  0    3609252.747  -2419071.921   5335526.550
10 0 59611  32142.000000  0    4022329.059  -2973631.570   4726643.988
10 0 59611  32262.000000  0    4355808.700  -3482757.874   4034575.722
10 0 59611  32382.000000  0    4604725.470  -3936097.707   3271479.413
10 0 59611  32502.000000  0    4765769.369  -4324202.687   2450776.975
10 0 59611  32622.000000  0    4837332.435  -4638729.215   1586915.958
10 0 59611  32742.000000  0    4819519.407  -4872619.072    695110.482
10 0 59611  32862.000000  0    4714123.506  -5020256.799   -208933.554
10 0 59611  32982.000000  0    4524567.984  -5077598.552  -1109303.110
10 0 59611  33102.000000  0    4255815.304  -5042269.536  -1990167.410
10 0 59611  33222.000000  0    3914244.635  -4913627.212  -2836064.013
10 0 59611  33342.000000  0    3507502.517  -4692789.113  -3632175.784
10 0 59611  33462.000000  0    3044330.500  -4382625.405  -4364592.359
10 0 59611  33582.000000  0    2534374.786  -3987716.759  -5020552.314
10 0 59611  33702.000000  0    1987981.840  -3514278.082  -5588659.466
10 0 59611  33822.000000  0    1415987.297  -2970053.406  -6059070.638
10 0 59611  33942.000000  0     829501.412  -2364184.383  -6423656.127
10 0 59611  34062.000000  0     239694.261  -1707052.783  -6676130.030
10 0 59611  34182.000000  0    -342413.945  -1010100.628  -6812147.824
10 0 59611  34302.000000  0    -906153.481   -285632.340  -6829372.291
10 0 59611  34422.000000  0   -1441395.692    453398.093  -6727508.775
10 0 59611  34542.000000  0   -1938730.906   1193612.666  -6508309.117
10 0 59611  34662.000000  0   -2389629.859   1921445.543  -6175544.767
10 0 59611  34782.000000  0   -2786588.003   2623385.586  -5734949.443
10 0 59611  34902.000000  0   -3123250.873   3286224.029  -5194131.108
10 0 59611  35022.000000  0   -3394518.584   3897302.728  -4562452.587
10 0 59611  35142.000000  0   -3596627.350   4444758.591  -3850879.915
10 0 59611  35262.000000  0   -3727204.167   4917758.064  -3071800.046
10 0 59611  35382.000000  0   -3785294.305   5306716.762  -2238812.505
10 0 59611  35502.000000  0   -3771362.485   5603500.999  -1366496.419
10 0 59611  35622.000000  0   -3687265.116   5801606.004   -470154.861
10 0 59611  35742.000000  0   -3536193.146   5896302.652    434458.432
10 0 59611  35862.000000  0   -3322589.165   5884750.763   1331422.650
10 0 59611  35982.000000  0   -3052036.852   5766075.432   2204940.589
10 0 59611  36102.000000  0   -2731126.006   5541401.716   3039627.250
10 0 59611  36222.000000  0   -2367298.647   5213847.661   3820787.855
10 0 59611  36342.000000  0   -1968680.369   4788478.319   4534681.132
10 0 59611  36462.000000  0   -1543900.942   4272221.415   5168763.218
10 0 59611  36582.000000  0   -1101907.811   3673746.902   5711908.126
10 0 59611  36702.000000  0    -651777.890   3003312.701   6154599.242
10 0 59611  36822.000000  0    -202531.966   2272581.388   6489090.436
10 0 59611  36942.000000  0     237044.688   1494412.781   6709535.217
10 0 59611  37062.000000  0     658573.242    682634.349   6812083.787
10 0 59611  37182.000000  0    1054239.919   -148205.327   6794944.907
10 0 59611  37302.000000  0    1416939.777   -983096.080   6658416.036
10 0 59611  37422.000000  0    1740404.081  -1806837.031   6404878.931
10 0 59611  37542.000000  0    2019309.062  -2604312.764   6038761.305
10 0 59611  37662.000000  0    2249364.556  -3360772.128   5566464.608
10 0 59611  37782.000000  0    2427380.942  -4062103.957   4996257.302
10 0 59611  37902.000000  0    2551312.705  -4695104.227   4338135.766
10 0 59611  38022.000000  0    2620279.594  -5247731.292   3603654.099
10 0 59611  38142.000000  0    2634563.124  -5709342.984   2805723.404
10 0 59611  38262.000000  0    2595577.827  -6070910.494   1958384.419
10 0 59611  38382.000000  0    2505818.340  -6325201.321   1076556.496
10 0 59611  38502.000000  0    2368784.236  -6466928.784    175770.568
10 0 59611  38622.000000  0    2188884.116  -6492865.990   -728111.821
10 0 59611  38742.000000  0    1971320.100  -6401917.229  -1619188.523
99
